NORAD_CAT_ID,OBJECT_NAME,OBJECT_TYPE,EPOCH,MEAN_MOTION,ECCENTRICITY,INCLINATION,RA_OF_ASC_NODE,ARG_OF_PERICENTER,MEAN_ANOMALY,BSTAR,MEAN_MOTION_DOT,MEAN_MOTION_DDOT,TLE_LINE0,TLE_LINE1,TLE_LINE2,SEMIMAJOR_AXIS,PERIOD,APOGEE,PERIGEE,DECAYED
51776.0,STARLINK-3608,PAYLOAD,2024-03-09 05:28:52,15.08832608,0.0001387,53.219,18.2892,104.2678,255.8469,0.00012747,1.741e-05,0.0,0 STARLINK-3608,1 51776U 22017J   24069.22838469  .00001741  00000-0  12747-3 0  9998,2 51776  53.2190  18.2892 0001387 104.2678 255.8469 15.08832608113785,6917.903,95.438,540.727,538.808,0.0
51776.0,STARLINK-3608,PAYLOAD,2024-03-09 13:25:47,15.08846605,0.0001283,53.2194,16.8009,96.1431,263.9707,0.00016221,2.295e-05,0.0,0 STARLINK-3608,1 51776U 22017J   24069.55957530  .00002295  00000-0  16221-3 0  9991,2 51776  53.2194  16.8009 0001283  96.1431 263.9707 15.08846605112342,6917.86,95.437,540.613,538.838,0.0
51776.0,STARLINK-3608,PAYLOAD,2024-03-10 05:19:39,15.08844183,0.0001613,53.219,13.8257,86.5222,273.5955,3.8256e-05,3.21e-06,0.0,0 STARLINK-3608,1 51776U 22017J   24070.22198276  .00000321  00000-0  38256-4 0  9992,2 51776  53.2190  13.8257 0001613  86.5222 273.5955 15.08844183113935,6917.868,95.437,540.848,538.617,0.0
51776.0,STARLINK-3608,PAYLOAD,2024-03-10 13:16:33,15.08860503,0.0001402,53.2186,12.3376,77.7713,282.3436,0.00013122,1.802e-05,0.0,0 STARLINK-3608,1 51776U 22017J   24070.55316714  .00001802  00000-0  13122-3 0  9996,2 51776  53.2186  12.3376 0001402  77.7713 282.3436 15.08860503112495,6917.818,95.436,540.653,538.713,0.0
51776.0,STARLINK-3608,PAYLOAD,2024-03-11 03:35:03,15.08835483,0.0001339,53.218,9.6636,86.3416,273.773,6.4943e-05,7.46e-06,0.0,0 STARLINK-3608,1 51776U 22017J   24071.14934706  .00000746  00000-0  64943-4 0  9993,2 51776  53.2180   9.6636 0001339  86.3416 273.7730 15.08835483114078,6917.894,95.438,540.686,538.833,0.0
51776.0,STARLINK-3608,PAYLOAD,2024-03-11 13:07:21,15.08846119,0.000148,53.2182,7.8806,88.9859,271.1303,0.00011157,1.488e-05,0.0,0 STARLINK-3608,1 51776U 22017J   24071.54677930  .00001488  00000-0  11157-3 0  9992,2 51776  53.2182   7.8806 0001480  88.9859 271.1303 15.08846119114138,6917.862,95.437,540.751,538.703,0.0
51776.0,STARLINK-3608,PAYLOAD,2024-03-12 05:01:13,15.08841029,0.0001482,53.2204,4.9023,119.2371,240.8769,-5.6112e-06,-3.77e-06,0.0,0 STARLINK-3608,1 51776U 22017J   24072.20918576 -.00000377  00000-0 -56112-5 0  9990,2 51776  53.2204   4.9023 0001482 119.2371 240.8769 15.08841029114236,6917.877,95.437,540.767,538.717,0.0
51776.0,STARLINK-3608,PAYLOAD,2024-03-12 12:58:08,15.08847093,0.0001697,53.2212,3.4172,94.258,265.8607,9.3841e-05,1.206e-05,0.0,0 STARLINK-3608,1 51776U 22017J   24072.54038078  .00001206  00000-0  93841-4 0  9996,2 51776  53.2212   3.4172 0001697  94.2580 265.8607 15.08847093112790,6917.859,95.437,540.898,538.55,0.0
51776.0,STARLINK-3608,PAYLOAD,2024-03-13 04:52:00,15.08841237,0.0001682,53.2195,0.4431,112.6576,247.4594,0.00027775,4.135e-05,0.0,0 STARLINK-3608,1 51776U 22017J   24073.20278315  .00004135  00000-0  27775-3 0  9996,2 51776  53.2195   0.4431 0001682 112.6576 247.4594 15.08841237112895,6917.877,95.437,540.905,538.578,0.0
51776.0,STARLINK-3608,PAYLOAD,2024-03-13 19:10:28,15.08843956,0.0001621,53.2192,357.7651,118.2775,241.838,0.0002443,3.603e-05,0.0,0 STARLINK-3608,1 51776U 22017J   24073.79894111  .00003603  00000-0  24430-3 0  9992,2 51776  53.2192 357.7651 0001621 118.2775 241.8380 15.08843956114477,6917.868,95.437,540.855,538.612,0.0
51776.0,STARLINK-3608,PAYLOAD,2024-03-13 22:21:14,15.08843633,0.0001781,53.2192,357.1695,119.86,240.2569,0.00017714,2.533e-05,0.0,0 STARLINK-3608,1 51776U 22017J   24073.93142097  .00002533  00000-0  17714-3 0  9995,2 51776  53.2192 357.1695 0001781 119.8600 240.2569 15.08843633113002,6917.869,95.437,540.966,538.502,0.0
51776.0,STARLINK-3608,PAYLOAD,2024-03-14 04:42:48,15.08806413,0.0001746,53.2192,355.9821,128.0437,232.0713,0.00061818,9.555e-05,0.0,0 STARLINK-3608,1 51776U 22017J   24074.19639238  .00009555  00000-0  61818-3 0  9997,2 51776  53.2192 355.9821 0001746 128.0437 232.0713 15.08806413114534,6917.983,95.44,541.056,538.64,0.0
51776.0,STARLINK-3608,PAYLOAD,2024-03-14 22:12:02,15.08837374,0.0001565,53.2189,352.7104,119.0722,241.0427,3.2997e-05,2.37e-06,0.0,0 STARLINK-3608,1 51776U 22017J   24074.92502540  .00000237  00000-0  32997-4 0  9998,2 51776  53.2189 352.7104 0001565 119.0722 241.0427 15.08837374113154,6917.888,95.438,540.836,538.671,0.0
51776.0,STARLINK-3608,PAYLOAD,2024-03-15 01:22:48,15.08838559,0.0001461,53.2188,352.1161,117.1561,242.9581,-7.0541e-06,-4e-06,0.0,0 STARLINK-3608,1 51776U 22017J   24075.05750540 -.00000400  00000-0 -70541-5 0  9990,2 51776  53.2188 352.1161 0001461 117.1561 242.9581 15.08838559114669,6917.885,95.438,540.76,538.739,0.0
51776.0,STARLINK-3608,PAYLOAD,2024-03-15 22:02:49,15.08835211,0.0001087,53.219,348.2544,90.8555,269.2562,5.5043e-05,5.88e-06,0.0,0 STARLINK-3608,1 51776U 22017J   24075.91862765  .00000588  00000-0  55043-4 0  9992,2 51776  53.2190 348.2544 0001087  90.8555 269.2562 15.08835211113300,6917.895,95.438,540.512,539.008,0.0
51776.0,STARLINK-3608,PAYLOAD,2024-03-16 04:24:21,15.08838826,0.0001148,53.2183,347.0627,97.5802,262.5321,6.2808e-05,7.12e-06,0.0,0 STARLINK-3608,1 51776U 22017J   24076.18358499  .00000712  00000-0  62808-4 0  9992,2 51776  53.2183 347.0627 0001148  97.5802 262.5321 15.08838826114831,6917.884,95.438,540.543,538.955,0.0
51776.0,STARLINK-3608,PAYLOAD,2024-03-16 21:53:36,15.08836772,0.000112,53.2184,343.7925,96.1313,263.9806,8.0483e-05,9.93e-06,0.0,0 STARLINK-3608,1 51776U 22017J   24076.91222751  .00000993  00000-0  80483-4 0  9994,2 51776  53.2184 343.7925 0001120  96.1313 263.9806 15.08836772113456,6917.89,95.438,540.53,538.98,0.0
51776.0,STARLINK-3608,PAYLOAD,2024-03-17 02:39:45,15.08839302,0.000113,53.218,342.9002,93.0814,267.0307,0.00010069,1.315e-05,0.0,0 STARLINK-3608,1 51776U 22017J   24077.11094596  .00001315  00000-0  10069-3 0  9992,2 51776  53.2180 342.9002 0001130  93.0814 267.0307 15.08839302113488,6917.883,95.438,540.529,538.966,0.0
51776.0,STARLINK-3608,PAYLOAD,2024-03-17 21:44:23,15.08837992,0.0001219,53.2181,339.3318,99.9646,260.1483,4.3294e-05,4.01e-06,0.0,0 STARLINK-3608,1 51776U 22017J   24077.90582887  .00000401  00000-0  43294-4 0  9996,2 51776  53.2181 339.3318 0001219  99.9646 260.1483 15.08837992115096,6917.887,95.438,540.595,538.908,0.0
51776.0,STARLINK-3608,PAYLOAD,2024-03-18 02:30:32,15.08839754,0.0001201,53.2179,338.4396,93.8564,266.2565,5.3496e-05,5.64e-06,0.0,0 STARLINK-3608,1 51776U 22017J   24078.10454772  .00000564  00000-0  53496-4 0  9995,2 51776  53.2179 338.4396 0001201  93.8564 266.2565 15.08839754113636,6917.881,95.438,540.577,538.915,0.0
51776.0,STARLINK-3608,PAYLOAD,2024-03-18 21:35:10,15.08840831,0.0001312,53.2185,334.8699,87.725,272.3893,4.5372e-05,4.34e-06,0.0,0 STARLINK-3608,1 51776U 22017J   24078.89942778  .00000434  00000-0  45372-4 0  9999,2 51776  53.2185 334.8699 0001312  87.7250 272.3893 15.08840831113759,6917.878,95.438,540.65,538.835,0.0
51776.0,STARLINK-3608,PAYLOAD,2024-03-19 02:21:19,15.08845103,0.000135,53.2189,333.9766,87.2579,272.8568,8.0476e-05,9.93e-06,0.0,0 STARLINK-3608,1 51776U 22017J   24079.09814383  .00000993  00000-0  80476-4 0  9996,2 51776  53.2189 333.9766 0001350  87.2579 272.8568 15.08845103115279,6917.865,95.437,540.664,538.796,0.0
51776.0,STARLINK-3608,PAYLOAD,2024-03-19 23:01:19,15.08849449,0.0001403,53.2188,330.1114,81.6811,278.434,0.0001294,1.773e-05,0.0,0 STARLINK-3608,1 51776U 22017J   24079.95925822  .00001773  00000-0  12940-3 0  9999,2 51776  53.2188 330.1114 0001403  81.6811 278.4340 15.08849449113916,6917.852,95.437,540.687,538.746,0.0
51776.0,STARLINK-3608,PAYLOAD,2024-03-20 21:16:47,15.08811662,0.0001068,53.2187,325.9482,82.3346,277.7767,-0.00024608,-4.199e-05,0.0,0 STARLINK-3608,1 51776U 22017J   24080.88665526 -.00004199  00000-0 -24608-3 0  9996,2 51776  53.2187 325.9482 0001068  82.3346 277.7767 15.08811662115545,6917.967,95.439,540.571,539.093,0.0
51776.0,STARLINK-3608,PAYLOAD,2024-03-20 22:52:10,15.08810069,0.0001334,53.2179,325.654,116.5886,243.5243,-0.00027187,-4.608e-05,0.0,0 STARLINK-3608,1 51776U 22017J   24080.95289669 -.00004608  00000-0 -27187-3 0  9994,2 51776  53.2179 325.6540 0001334 116.5886 243.5243 15.08810069114069,6917.972,95.439,540.76,538.914,0.0
51776.0,STARLINK-3608,PAYLOAD,2024-03-21 02:02:56,15.08814814,0.0001177,53.2176,325.0601,109.914,250.1979,-0.00023349,-3.999e-05,0.0,0 STARLINK-3608,1 51776U 22017J   24081.08537502 -.00003999  00000-0 -23349-3 0  9999,2 51776  53.2176 325.0601 0001177 109.9140 250.1979 15.08814814115571,6917.957,95.439,540.637,539.008,0.0
51776.0,STARLINK-3608,PAYLOAD,2024-03-21 21:07:31,15.08860108,0.0002186,53.2188,321.492,130.1511,229.9673,0.00014556,2.03e-05,0.0,0 STARLINK-3608,1 51776U 22017J   24081.88022067  .00002030  00000-0  14556-3 0  9995,2 51776  53.2188 321.4920 0002186 130.1511 229.9673 15.08860108115692,6917.819,95.436,541.196,538.172,0.0
51776.0,STARLINK-3608,PAYLOAD,2024-03-22 01:53:40,15.08863015,0.0001627,53.2177,320.5956,99.0298,261.0878,0.00020523,2.982e-05,0.0,0 STARLINK-3608,1 51776U 22017J   24082.07893766  .00002982  00000-0  20523-3 0  9996,2 51776  53.2177 320.5956 0001627  99.0298 261.0878 15.08863015114236,6917.81,95.436,540.801,538.55,0.0
51776.0,STARLINK-3608,PAYLOAD,2024-03-22 20:58:19,15.08830748,0.0001275,53.2176,317.0295,106.874,253.2392,0.00037599,5.7e-05,0.0,0 STARLINK-3608,1 51776U 22017J   24082.87383322  .00005700  00000-0  37599-3 0  9998,2 51776  53.2176 317.0295 0001275 106.8740 253.2392 15.08830748115849,6917.909,95.438,540.656,538.892,0.0
51776.0,STARLINK-3608,PAYLOAD,2024-03-22 22:33:42,15.08830061,0.000123,53.2175,316.7322,103.5211,256.5918,0.00036448,5.516e-05,0.0,0 STARLINK-3608,1 51776U 22017J   24082.94007445  .00005516  00000-0  36448-3 0  9992,2 51776  53.2175 316.7322 0001230 103.5211 256.5918 15.08830061114367,6917.911,95.438,540.627,538.925,0.0
